[{"OBJECT_NAME":"STARLINK-6380","OBJECT_ID":"2023-099S","EPOCH":"2026-03-09T12:33:16.917408","MEAN_MOTION":15.02540942,"ECCENTRICITY":0.00014676,"INCLINATION":43.0018,"RA_OF_ASC_NODE":249.6909,"ARG_OF_PERICENTER":272.2742,"MEAN_ANOMALY":87.7932,"EPHEMERIS_TYPE":0,"CLASSIFICATION_TYPE":"U","NORAD_CAT_ID":57344,"ELEMENT_SET_NO":999,"REV_AT_EPOCH":14609,"BSTAR":-0.00024606554,"MEAN_MOTION_DOT":-3.526e-5,"MEAN_MOTION_DDOT":0},{"OBJECT_NAME":"FENGYUN 1C DEB","OBJECT_ID":"1999-025AQU","EPOCH":"2026-03-09T01:25:03.420768","MEAN_MOTION":14.74992504,"ECCENTRICITY":0.01405011,"INCLINATION":99.0317,"RA_OF_ASC_NODE":276.8472,"ARG_OF_PERICENTER":211.6472,"MEAN_ANOMALY":309.6318,"EPHEMERIS_TYPE":0,"CLASSIFICATION_TYPE":"U","NORAD_CAT_ID":30686,"ELEMENT_SET_NO":999,"REV_AT_EPOCH":874,"BSTAR":0.0010181927,"MEAN_MOTION_DOT":7.973e-5,"MEAN_MOTION_DDOT":0}]
